FALCONSAT-10            
1 58291U 23174AM  26068.70247784  .00006748  00000+0  25969-3 0  9991
2 58291  97.3865 145.7938 0008932 169.5942 190.5483 15.26670596129582
STARLINK-33718          
1 63476U 25070S   26068.58357932  .00028847  00000+0  10525-2 0  9997
2 63476  43.0027 260.0952 0001515 259.2306 100.8375 15.27617231 52968
